[{"OBJECT_NAME":"QIANFAN-39","OBJECT_ID":"2024-232D","EPOCH":"2026-03-09T21:25:16.059072","MEAN_MOTION":14.25440879,"ECCENTRICITY":0.00171102,"INCLINATION":89.0064,"RA_OF_ASC_NODE":27.3413,"ARG_OF_PERICENTER":145.5992,"MEAN_ANOMALY":214.6313,"EPHEMERIS_TYPE":0,"CLASSIFICATION_TYPE":"U","NORAD_CAT_ID":62240,"ELEMENT_SET_NO":999,"REV_AT_EPOCH":11380,"BSTAR":0.00022622412,"MEAN_MOTION_DOT":5.49e-6,"MEAN_MOTION_DDOT":0},{"OBJECT_NAME":"FENGYUN 1C DEB","OBJECT_ID":"1999-025AAC","EPOCH":"2026-03-09T22:53:45.233664","MEAN_MOTION":14.19206573,"ECCENTRICITY":0.00363295,"INCLINATION":98.602,"RA_OF_ASC_NODE":80.9088,"ARG_OF_PERICENTER":106.4055,"MEAN_ANOMALY":314.285,"EPHEMERIS_TYPE":0,"CLASSIFICATION_TYPE":"U","NORAD_CAT_ID":30315,"ELEMENT_SET_NO":999,"REV_AT_EPOCH":98944,"BSTAR":0.00037347809,"MEAN_MOTION_DOT":7.45e-6,"MEAN_MOTION_DDOT":0}]
